NORAD_CAT_ID,OBJECT_NAME,OBJECT_TYPE,EPOCH,MEAN_MOTION,ECCENTRICITY,INCLINATION,RA_OF_ASC_NODE,ARG_OF_PERICENTER,MEAN_ANOMALY,BSTAR,MEAN_MOTION_DOT,MEAN_MOTION_DDOT,TLE_LINE0,TLE_LINE1,TLE_LINE2,SEMIMAJOR_AXIS,PERIOD,APOGEE,PERIGEE,DECAYED
51743.0,STARLINK-3512,PAYLOAD,2022-07-08 11:36:50,15.08831479,0.0001991,53.2149,205.5393,42.7018,317.4128,7.9833e-05,9.82e-06,0.0,0 STARLINK-3512,1 51743U 22016AF  22189.48391396  .00000982  00000-0  79833-4 0  9999,2 51743  53.2149 205.5393 0001991  42.7018 317.4128 15.08831479 22506,6917.906,95.438,541.149,538.394,0.0
51743.0,STARLINK-3512,PAYLOAD,2022-07-08 22:00:01,15.08821025,0.0001899,53.2137,203.5958,45.0563,147.1047,0.0024655,0.00039149,0.0,0 STARLINK-3512,1 51743U 22016AF  22189.91668981  .00039149  00000-0  24655-2 0  9991,2 51743  53.2137 203.5958 0001899  45.0563 147.1047 15.08821025  1305,6917.938,95.439,541.117,538.49,0.0
51743.0,STARLINK-3512,PAYLOAD,2022-07-09 14:00:01,15.08857477,0.0002092,53.2131,200.6046,40.7123,174.5656,-0.002595,-0.00041372,0.0,0 STARLINK-3512,1 51743U 22016AF  22190.58334491 -.00041372  00000-0 -25950-2 0  9994,2 51743  53.2131 200.6046 0002092  40.7123 174.5656 15.08857477  1305,6917.8269999999975,95.436,541.139,538.245,0.0
51743.0,STARLINK-3512,PAYLOAD,2022-07-09 16:00:00,15.08870339,0.0002029,53.2131,200.23,41.0915,267.0837,-0.0052958999999999,-0.00083667,0.0,0 STARLINK-3512,1 51743U 22016AF  22190.66667824 -.00083667  00000-0 -52959-2 0  9994,2 51743  53.2131 200.2300 0002029  41.0915 267.0837 15.08870339 22682,6917.788000000001,95.436,541.056,538.249,0.0
51743.0,STARLINK-3512,PAYLOAD,2022-07-09 20:00:01,15.08812749,0.0001898,53.2132,199.481,43.319,90.6697,0.00024624,3.63e-05,0.0,0 STARLINK-3512,1 51743U 22016AF  22190.83334491  .00003630  00000-0  24624-3 0  9993,2 51743  53.2132 199.4810 0001898  43.3190  90.6697 15.08812749  1302,6917.964,95.439,541.1419999999998,538.516,0.0
51743.0,STARLINK-3512,PAYLOAD,2022-07-10 06:00:00,15.0882524,0.0002064,53.213,197.6117,42.557,195.8904,-0.0012776,-0.00020556,0.0,0 STARLINK-3512,1 51743U 22016AF  22191.25001157 -.00020556  00000-0 -12776-2 0  9992,2 51743  53.2130 197.6117 0002064  42.5570 195.8904 15.08825240 22772,6917.926,95.438,541.2180000000002,538.363,0.0
51743.0,STARLINK-3512,PAYLOAD,2022-07-10 14:00:01,15.08828822,0.0002118,53.2126,196.1153,40.2369,209.7755,-0.00097313,-0.00015738,0.0,0 STARLINK-3512,1 51743U 22016AF  22191.58334491 -.00015738  00000-0 -97313-3 0  9995,2 51743  53.2126 196.1153 0002118  40.2369 209.7755 15.08828822  1306,6917.915,95.438,541.245,538.314,0.0
51743.0,STARLINK-3512,PAYLOAD,2022-07-10 22:00:00,15.088009,0.0002003,53.2127,194.6172,45.3975,216.1956,0.0024504,0.00038884,0.0,0 STARLINK-3512,1 51743U 22016AF  22191.91667824  .00038884  00000-0  24504-2 0  9997,2 51743  53.2127 194.6172 0002003  45.3975 216.1956 15.08800900 22870,6918.0,95.44,541.251,538.479,0.0
51743.0,STARLINK-3512,PAYLOAD,2022-07-11 14:00:01,15.08839486,0.0002219,53.2126,191.6258,41.4257,243.3075,-0.0014412,-0.00023152,0.0,0 STARLINK-3512,1 51743U 22016AF  22192.58334491 -.00023152  00000-0 -14412-2 0  9993,2 51743  53.2126 191.6258 0002219  41.4257 243.3075 15.08839486  1300,6917.882,95.438,541.2819999999998,538.212,0.0
51743.0,STARLINK-3512,PAYLOAD,2022-07-11 22:00:00,15.08809756,0.0002116,53.2129,190.1277,46.8721,249.4517,0.0025708,0.0004083,0.0,0 STARLINK-3512,1 51743U 22016AF  22192.91667824  .00040830  00000-0  25708-2 0  9999,2 51743  53.2129 190.1277 0002116  46.8721 249.4517 15.08809756  1304,6917.973000000001,95.439,541.302,538.374,0.0
51743.0,STARLINK-3512,PAYLOAD,2022-07-12 06:00:00,15.08838231,0.0002315,53.2129,188.6329,44.5419,263.3617,-0.00090282,-0.00014628,0.0,0 STARLINK-3512,1 51743U 22016AF  22193.25001157 -.00014628  00000-0 -90282-3 0  9996,2 51743  53.2129 188.6329 0002315  44.5419 263.3617 15.08838231 23078,6917.886,95.438,541.352,538.149,0.0
51743.0,STARLINK-3512,PAYLOAD,2022-07-12 14:00:01,15.08853711,0.0002313,53.2129,187.1362,43.1258,276.3619,-0.0016713,-0.000268,0.0,0 STARLINK-3512,1 51743U 22016AF  22193.58334491 -.00026800  00000-0 -16713-2 0  9993,2 51743  53.2129 187.1362 0002313  43.1258 276.3619 15.08853711  1301,6917.8380000000025,95.437,541.304,538.1030000000002,0.0
51743.0,STARLINK-3512,PAYLOAD,2022-07-12 22:00:00,15.08825573,0.0002206,53.2134,185.6382,48.6928,282.4015,0.0026748,0.00042523,0.0,0 STARLINK-3512,1 51743U 22016AF  22193.91667824  .00042523  00000-0  26748-2 0  9996,2 51743  53.2134 185.6382 0002206  48.6928 282.4015 15.08825573  1300,6917.924,95.438,541.316,538.263,0.0
51743.0,STARLINK-3512,PAYLOAD,2022-07-13 14:00:01,15.08869619,0.0002374,53.2135,182.6465,45.0626,309.2324,-0.0019162,-0.00030681,0.0,0 STARLINK-3512,1 51743U 22016AF  22194.58334491 -.00030681  00000-0 -19162-2 0  9997,2 51743  53.2135 182.6465 0002374  45.0626 309.2324 15.08869619  1302,6917.79,95.436,541.297,538.013,0.0
51743.0,STARLINK-3512,PAYLOAD,2022-07-13 16:00:00,15.08865661,0.0002316,53.2138,182.2718,46.9771,40.2235,-0.00158,-0.00025365,0.0,0 STARLINK-3512,1 51743U 22016AF  22194.66667824 -.00025365  00000-0 -15800-2 0  9993,2 51743  53.2138 182.2718 0002316  46.9771  40.2235 15.08865661 23297,6917.802,95.436,541.269,538.065,0.0
51743.0,STARLINK-3512,PAYLOAD,2022-07-13 22:00:00,15.08845382,0.000223,53.214,181.1488,50.113,315.8008,0.0016190999999999,0.00025578,0.0,0 STARLINK-3512,1 51743U 22016AF  22194.91667824  .00025578  00000-0  16191-2 0  9999,2 51743  53.2140 181.1488 0002230  50.1130 315.8008 15.08845382  1308,6917.864000000001,95.437,541.2719999999998,538.186,0.0
51743.0,STARLINK-3512,PAYLOAD,2022-07-14 14:00:01,15.0885346,0.0002307,53.214,178.1569,45.1782,343.9456,-0.0020647,-0.00033011,0.0,0 STARLINK-3512,1 51743U 22016AF  22195.58334491 -.00033011  00000-0 -20647-2 0  9998,2 51743  53.2140 178.1569 0002307  45.1782 343.9456 15.08853460 23439,6917.839,95.437,541.3,538.1080000000002,0.0
51743.0,STARLINK-3512,PAYLOAD,2022-07-14 22:00:00,15.08828823,0.0002182,53.2144,176.6595,50.7948,349.9281,0.0020926,0.00033163,0.0,0 STARLINK-3512,1 51743U 22016AF  22195.91667824  .00033163  00000-0  20926-2 0  9990,2 51743  53.2144 176.6595 0002182  50.7948 349.9281 15.08828823  1301,6917.915,95.438,541.289,538.27,0.0
51743.0,STARLINK-3512,PAYLOAD,2022-07-15 06:00:00,15.08845659,0.000237,53.2144,175.1649,47.4921,4.8294,-0.00048076,-7.933e-05,0.0,0 STARLINK-3512,1 51743U 22016AF  22196.25001157 -.00007933  00000-0 -48076-3 0  9994,2 51743  53.2144 175.1649 0002370  47.4921   4.8294 15.08845659 23534,6917.863,95.437,541.368,538.089,0.0
51743.0,STARLINK-3512,PAYLOAD,2022-07-15 14:00:01,15.08865638,0.0002303,53.2143,173.6677,47.9629,15.9573,-0.0019507,-0.00031223,0.0,0 STARLINK-3512,1 51743U 22016AF  22196.58334491 -.00031223  00000-0 -19507-2 0  9995,2 51743  53.2143 173.6677 0002303  47.9629  15.9573 15.08865638  1306,6917.802,95.436,541.26,538.0740000000002,0.0
51743.0,STARLINK-3512,PAYLOAD,2022-07-15 22:00:00,15.08847933,0.0002262,53.2161,172.1655,50.1467,25.3915,-0.0012661,-0.00020387,0.0,0 STARLINK-3512,1 51743U 22016AF  22196.91667824 -.00020387  00000-0 -12661-2 0  9994,2 51743  53.2161 172.1655 0002262  50.1467  25.3915 15.08847933  1309,6917.856,95.437,541.286,538.156,0.0
51743.0,STARLINK-3512,PAYLOAD,2022-07-16 06:00:00,15.08856164,0.0002315,53.2144,170.6758,48.5472,38.6068,-0.0024801,-0.00039562,0.0,0 STARLINK-3512,1 51743U 22016AF  22197.25001157 -.00039562  00000-0 -24801-2 0  9997,2 51743  53.2144 170.6758 0002315  48.5472  38.6068 15.08856164 23680,6917.831,95.437,541.297,538.095,0.0
51743.0,STARLINK-3512,PAYLOAD,2022-07-16 14:00:01,15.08851321,0.0002214,53.2142,169.1785,48.7019,50.0495,-0.0017504,-0.00028048,0.0,0 STARLINK-3512,1 51743U 22016AF  22197.58334491 -.00028048  00000-0 -17504-2 0  9992,2 51743  53.2142 169.1785 0002214  48.7019  50.0495 15.08851321  1305,6917.846,95.437,541.242,538.179,0.0
51743.0,STARLINK-3512,PAYLOAD,2022-07-16 22:00:00,15.088379000000002,0.0002149,53.2144,167.6813,53.8597,56.4852,0.0012994,0.00020451,0.0,0 STARLINK-3512,1 51743U 22016AF  22197.91667824  .00020451  00000-0  12994-2 0  9994,2 51743  53.2144 167.6813 0002149  53.8597  56.4852 15.08837900 23787,6917.887,95.438,541.238,538.265,0.0
51743.0,STARLINK-3512,PAYLOAD,2022-07-17 14:00:01,15.08850602,0.0002166,53.2141,164.6893,49.14,84.4089,-0.0029698,-0.00047258,0.0,0 STARLINK-3512,1 51743U 22016AF  22198.58334491 -.00047258  00000-0 -29698-2 0  9994,2 51743  53.2141 164.6893 0002166  49.1400  84.4089 15.08850602 23887,6917.848000000001,95.437,541.211,538.215,0.0
51743.0,STARLINK-3512,PAYLOAD,2022-07-17 22:00:00,15.08828921,0.0002124,53.2143,163.1922,53.697,91.4349,0.00090586,0.00014154,0.0,0 STARLINK-3512,1 51743U 22016AF  22198.91667824  .00014154  00000-0  90586-3 0  9992,2 51743  53.2143 163.1922 0002124  53.6970  91.4349 15.08828921  1301,6917.9140000000025,95.438,541.249,538.31,0.0
51743.0,STARLINK-3512,PAYLOAD,2022-07-18 06:00:00,15.08823229,0.0002305,53.2142,161.6977,48.8497,107.8756,0.0011347999999999,0.0001781,0.0,0 STARLINK-3512,1 51743U 22016AF  22199.25001157  .00017810  00000-0  11348-2 0  9991,2 51743  53.2142 161.6977 0002305  48.8497 107.8756 15.08823229 23982,6917.932,95.439,541.391,538.202,0.0
51743.0,STARLINK-3512,PAYLOAD,2022-07-18 14:00:01,15.08858403,0.0002196,53.2141,160.2001,50.0193,118.293,-0.0017649,-0.00028282,0.0,0 STARLINK-3512,1 51743U 22016AF  22199.58334491 -.00028282  00000-0 -17649-2 0  9994,2 51743  53.2141 160.2001 0002196  50.0193 118.2930 15.08858403  1304,6917.824000000001,95.436,541.2080000000002,538.17,0.0
51743.0,STARLINK-3512,PAYLOAD,2022-07-18 22:00:00,15.08850628,0.0002148,53.2143,158.7031,53.8375,126.0783,-0.0014301,-0.00022984,0.0,0 STARLINK-3512,1 51743U 22016AF  22199.91667824 -.00022984  00000-0 -14301-2 0  9995,2 51743  53.2143 158.7031 0002148  53.8375 126.0783 15.08850628  1305,6917.848000000001,95.437,541.1990000000002,538.227,0.0
